GLOBALSTAR M024         
1 25883U 99043A   24213.85621609  .00000006  00000+0  25081-2 0  9993
2 25883  52.0046  23.3960 0000747 328.2376 180.7108 11.10160050 79283
GLOBALSTAR M027         
1 25884U 99043B   24213.90065174 -.00000033  00000+0  11390-2 0  9998
2 25884  52.0212  92.2041 0020696 193.0167 167.0094 11.04369249105854
GLOBALSTAR M054         
1 25885U 99043C   24213.89221694 -.00000005  00000+0  16840-2 0  9992
2 25885  52.0124 273.2769 0004735 351.1977 180.4857 11.39211233 82540
GLOBALSTAR M053         
1 25886U 99043D   24213.97449476 -.00000055  00000+0  38266-3 0  9994
2 25886  51.9943 202.4052 0003762 262.1608 110.2678 11.27657415 83320
GLOBALSTAR M058         
1 25907U 99049A   24213.80111842 -.00000044  00000+0  54335-3 0  9992
2 25907  51.9912 244.6806 0002030  21.0854 339.0064 11.93179352503292
GLOBALSTAR M050         
1 25908U 99049B   24213.62338708 -.00000070  00000+0  20223-3 0  9993
2 25908  51.9982 276.7812 0009411 114.7512  39.7665 12.07437672109464
GLOBALSTAR M033         
1 25909U 99049C   24213.91907697 -.00000103  00000+0 -11055-3 0  9996
2 25909  51.9897 169.9226 0012886 328.9218  31.0866 12.20273889496644
